[{"OBJECT_NAME":"STARLINK-31995","OBJECT_ID":"2024-107P","EPOCH":"2025-08-13T12:12:02.456064","MEAN_MOTION":15.30193072,"ECCENTRICITY":0.0001458,"INCLINATION":53.161,"RA_OF_ASC_NODE":312.4678,"ARG_OF_PERICENTER":86.2629,"MEAN_ANOMALY":273.8538,"EPHEMERIS_TYPE":0,"CLASSIFICATION_TYPE":"U","NORAD_CAT_ID":59958,"ELEMENT_SET_NO":999,"REV_AT_EPOCH":6672,"BSTAR":-0.00010721,"MEAN_MOTION_DOT":-3.532e-5,"MEAN_MOTION_DDOT":0},{"OBJECT_NAME":"STARLINK-31989","OBJECT_ID":"2024-107Q","EPOCH":"2025-08-13T13:36:58.252896","MEAN_MOTION":15.30196394,"ECCENTRICITY":0.0001236,"INCLINATION":53.1615,"RA_OF_ASC_NODE":312.1247,"ARG_OF_PERICENTER":101.8272,"MEAN_ANOMALY":258.2868,"EPHEMERIS_TYPE":0,"CLASSIFICATION_TYPE":"U","NORAD_CAT_ID":59959,"ELEMENT_SET_NO":999,"REV_AT_EPOCH":6793,"BSTAR":-1.5003e-5,"MEAN_MOTION_DOT":-8.03e-6,"MEAN_MOTION_DDOT":0},{"OBJECT_NAME":"STARLINK-31856","OBJECT_ID":"2024-107R","EPOCH":"2025-08-13T12:07:28.565472","MEAN_MOTION":15.30199112,"ECCENTRICITY":0.0001458,"INCLINATION":53.1607,"RA_OF_ASC_NODE":312.4499,"ARG_OF_PERICENTER":116.7483,"MEAN_ANOMALY":243.3667,"EPHEMERIS_TYPE":0,"CLASSIFICATION_TYPE":"U","NORAD_CAT_ID":59960,"ELEMENT_SET_NO":999,"REV_AT_EPOCH":6792,"BSTAR":2.4681e-5,"MEAN_MOTION_DOT":3.72e-6,"MEAN_MOTION_DDOT":0},{"OBJECT_NAME":"STARLINK-31993","OBJECT_ID":"2024-107S","EPOCH":"2025-08-13T12:21:09.741312","MEAN_MOTION":15.30193427,"ECCENTRICITY":0.0001246,"INCLINATION":53.1604,"RA_OF_ASC_NODE":312.5034,"ARG_OF_PERICENTER":85.19,"MEAN_ANOMALY":274.9243,"EPHEMERIS_TYPE":0,"CLASSIFICATION_TYPE":"U","NORAD_CAT_ID":59961,"ELEMENT_SET_NO":999,"REV_AT_EPOCH":6786,"BSTAR":-5.8713e-5,"MEAN_MOTION_DOT":-2.097e-5,"MEAN_MOTION_DDOT":0},{"OBJECT_NAME":"STARLINK-31980","OBJECT_ID":"2024-107T","EPOCH":"2025-08-13T12:31:47.330112","MEAN_MOTION":15.30204815,"ECCENTRICITY":0.0001248,"INCLINATION":53.1616,"RA_OF_ASC_NODE":312.5462,"ARG_OF_PERICENTER":85.4047,"MEAN_ANOMALY":274.7096,"EPHEMERIS_TYPE":0,"CLASSIFICATION_TYPE":"U","NORAD_CAT_ID":59962,"ELEMENT_SET_NO":999,"REV_AT_EPOCH":6792,"BSTAR":-4.7722e-5,"MEAN_MOTION_DOT":-1.772e-5,"MEAN_MOTION_DDOT":0},{"OBJECT_NAME":"STARLINK-31991","OBJECT_ID":"2024-107U","EPOCH":"2025-08-13T12:16:36.566976","MEAN_MOTION":15.30184194,"ECCENTRICITY":0.0001207,"INCLINATION":53.1606,"RA_OF_ASC_NODE":312.4844,"ARG_OF_PERICENTER":84.0831,"MEAN_ANOMALY":276.0308,"EPHEMERIS_TYPE":0,"CLASSIFICATION_TYPE":"U","NORAD_CAT_ID":59963,"ELEMENT_SET_NO":999,"REV_AT_EPOCH":6792,"BSTAR":-5.6548e-5,"MEAN_MOTION_DOT":-2.033e-5,"MEAN_MOTION_DDOT":0},{"OBJECT_NAME":"STARLINK-31979","OBJECT_ID":"2024-107V","EPOCH":"2025-08-13T12:27:13.739328","MEAN_MOTION":15.3018903,"ECCENTRICITY":0.0001381,"INCLINATION":53.1618,"RA_OF_ASC_NODE":312.5309,"ARG_OF_PERICENTER":95.4266,"MEAN_ANOMALY":264.6893,"EPHEMERIS_TYPE":0,"CLASSIFICATION_TYPE":"U","NORAD_CAT_ID":59964,"ELEMENT_SET_NO":999,"REV_AT_EPOCH":6787,"BSTAR":0.00013082,"MEAN_MOTION_DOT":3.516e-5,"MEAN_MOTION_DDOT":0},{"OBJECT_NAME":"STARLINK-31978","OBJECT_ID":"2024-111A","EPOCH":"2025-08-13T13:29:23.709408","MEAN_MOTION":15.30193219,"ECCENTRICITY":9.96e-5,"INCLINATION":53.1607,"RA_OF_ASC_NODE":322.6888,"ARG_OF_PERICENTER":82.0753,"MEAN_ANOMALY":278.0361,"EPHEMERIS_TYPE":0,"CLASSIFICATION_TYPE":"U","NORAD_CAT_ID":60016,"ELEMENT_SET_NO":999,"REV_AT_EPOCH":6706,"BSTAR":-4.8071e-5,"MEAN_MOTION_DOT":-1.782e-5,"MEAN_MOTION_DDOT":0},{"OBJECT_NAME":"STARLINK-31987","OBJECT_ID":"2024-111B","EPOCH":"2025-08-13T13:20:16.922688","MEAN_MOTION":15.30192313,"ECCENTRICITY":0.0001087,"INCLINATION":53.1612,"RA_OF_ASC_NODE":322.6469,"ARG_OF_PERICENTER":84.7279,"MEAN_ANOMALY":275.3846,"EPHEMERIS_TYPE":0,"CLASSIFICATION_TYPE":"U","NORAD_CAT_ID":60017,"ELEMENT_SET_NO":999,"REV_AT_EPOCH":6712,"BSTAR":-3.114e-5,"MEAN_MOTION_DOT":-1.281e-5,"MEAN_MOTION_DDOT":0},{"OBJECT_NAME":"STARLINK-31984","OBJECT_ID":"2024-111C","EPOCH":"2025-08-13T13:09:37.872000","MEAN_MOTION":15.3019244,"ECCENTRICITY":0.0001161,"INCLINATION":53.16,"RA_OF_ASC_NODE":322.601,"ARG_OF_PERICENTER":84.9444,"MEAN_ANOMALY":275.1689,"EPHEMERIS_TYPE":0,"CLASSIFICATION_TYPE":"U","NORAD_CAT_ID":60018,"ELEMENT_SET_NO":999,"REV_AT_EPOCH":6701,"BSTAR":0.00010358,"MEAN_MOTION_DOT":2.709e-5,"MEAN_MOTION_DDOT":0},{"OBJECT_NAME":"STARLINK-31986","OBJECT_ID":"2024-111D","EPOCH":"2025-08-13T12:55:57.699264","MEAN_MOTION":15.30176891,"ECCENTRICITY":0.0001413,"INCLINATION":53.1625,"RA_OF_ASC_NODE":322.5395,"ARG_OF_PERICENTER":103.7094,"MEAN_ANOMALY":256.4064,"EPHEMERIS_TYPE":0,"CLASSIFICATION_TYPE":"U","NORAD_CAT_ID":60019,"ELEMENT_SET_NO":999,"REV_AT_EPOCH":6717,"BSTAR":8.6186e-5,"MEAN_MOTION_DOT":2.192e-5,"MEAN_MOTION_DDOT":0},{"OBJECT_NAME":"STARLINK-31883","OBJECT_ID":"2024-111E","EPOCH":"2025-08-13T13:24:50.084064","MEAN_MOTION":15.30188817,"ECCENTRICITY":0.000112,"INCLINATION":53.1607,"RA_OF_ASC_NODE":322.6678,"ARG_OF_PERICENTER":92.4999,"MEAN_ANOMALY":267.613,"EPHEMERIS_TYPE":0,"CLASSIFICATION_TYPE":"U","NORAD_CAT_ID":60020,"ELEMENT_SET_NO":999,"REV_AT_EPOCH":6711,"BSTAR":1.45e-5,"MEAN_MOTION_DOT":7.0e-7,"MEAN_MOTION_DDOT":0},{"OBJECT_NAME":"STARLINK-31967","OBJECT_ID":"2024-111F","EPOCH":"2025-08-13T13:42:52.577568","MEAN_MOTION":15.30219942,"ECCENTRICITY":0.0001268,"INCLINATION":53.1609,"RA_OF_ASC_NODE":322.0339,"ARG_OF_PERICENTER":109.1137,"MEAN_ANOMALY":251.0001,"EPHEMERIS_TYPE":0,"CLASSIFICATION_TYPE":"U","NORAD_CAT_ID":60021,"ELEMENT_SET_NO":999,"REV_AT_EPOCH":6718,"BSTAR":9.5464e-5,"MEAN_MOTION_DOT":2.471e-5,"MEAN_MOTION_DDOT":0},{"OBJECT_NAME":"STARLINK-31982","OBJECT_ID":"2024-111G","EPOCH":"2025-08-13T13:33:48.529728","MEAN_MOTION":15.30181136,"ECCENTRICITY":0.0001131,"INCLINATION":53.1602,"RA_OF_ASC_NODE":321.9972,"ARG_OF_PERICENTER":82.1348,"MEAN_ANOMALY":277.9782,"EPHEMERIS_TYPE":0,"CLASSIFICATION_TYPE":"U","NORAD_CAT_ID":60022,"ELEMENT_SET_NO":999,"REV_AT_EPOCH":6718,"BSTAR":-6.6446e-5,"MEAN_MOTION_DOT":-2.325e-5,"MEAN_MOTION_DDOT":0},{"OBJECT_NAME":"STARLINK-31992","OBJECT_ID":"2024-111H","EPOCH":"2025-08-13T12:13:24.819456","MEAN_MOTION":15.30196382,"ECCENTRICITY":0.0001139,"INCLINATION":53.16,"RA_OF_ASC_NODE":322.354,"ARG_OF_PERICENTER":113.1431,"MEAN_ANOMALY":246.969,"EPHEMERIS_TYPE":0,"CLASSIFICATION_TYPE":"U","NORAD_CAT_ID":60023,"ELEMENT_SET_NO":999,"REV_AT_EPOCH":6717,"BSTAR":-5.162e-5,"MEAN_MOTION_DOT":-1.887e-5,"MEAN_MOTION_DDOT":0},{"OBJECT_NAME":"STARLINK-31990","OBJECT_ID":"2024-111J","EPOCH":"2025-08-13T14:16:20.123904","MEAN_MOTION":15.30196705,"ECCENTRICITY":0.0001236,"INCLINATION":53.1608,"RA_OF_ASC_NODE":322.1796,"ARG_OF_PERICENTER":94.9706,"MEAN_ANOMALY":265.1436,"EPHEMERIS_TYPE":0,"CLASSIFICATION_TYPE":"U","NORAD_CAT_ID":60024,"ELEMENT_SET_NO":999,"REV_AT_EPOCH":6717,"BSTAR":7.9074e-5,"MEAN_MOTION_DOT":1.983e-5,"MEAN_MOTION_DDOT":0},{"OBJECT_NAME":"STARLINK-31864","OBJECT_ID":"2024-111K","EPOCH":"2025-08-13T13:02:48.777504","MEAN_MOTION":15.31278865,"ECCENTRICITY":0.000149,"INCLINATION":53.1621,"RA_OF_ASC_NODE":322.5063,"ARG_OF_PERICENTER":35.167,"MEAN_ANOMALY":324.943,"EPHEMERIS_TYPE":0,"CLASSIFICATION_TYPE":"U","NORAD_CAT_ID":60025,"ELEMENT_SET_NO":999,"REV_AT_EPOCH":6716,"BSTAR":0.0012368,"MEAN_MOTION_DOT":0.00037707,"MEAN_MOTION_DDOT":0},{"OBJECT_NAME":"STARLINK-31939","OBJECT_ID":"2024-111L","EPOCH":"2025-08-13T13:56:35.355264","MEAN_MOTION":15.30189762,"ECCENTRICITY":0.0001128,"INCLINATION":53.1601,"RA_OF_ASC_NODE":322.0923,"ARG_OF_PERICENTER":78.006,"MEAN_ANOMALY":282.1067,"EPHEMERIS_TYPE":0,"CLASSIFICATION_TYPE":"U","NORAD_CAT_ID":60026,"ELEMENT_SET_NO":999,"REV_AT_EPOCH":6717,"BSTAR":-7.7501e-5,"MEAN_MOTION_DOT":-2.653e-5,"MEAN_MOTION_DDOT":0},{"OBJECT_NAME":"STARLINK-32012","OBJECT_ID":"2024-111M","EPOCH":"2025-08-13T12:27:06.019488","MEAN_MOTION":15.3016721,"ECCENTRICITY":5.08e-5,"INCLINATION":53.1605,"RA_OF_ASC_NODE":322.4085,"ARG_OF_PERICENTER":66.8567,"MEAN_ANOMALY":293.2487,"EPHEMERIS_TYPE":0,"CLASSIFICATION_TYPE":"U","NORAD_CAT_ID":60027,"ELEMENT_SET_NO":999,"REV_AT_EPOCH":6716,"BSTAR":7.7649e-5,"MEAN_MOTION_DOT":1.939e-5,"MEAN_MOTION_DDOT":0},{"OBJECT_NAME":"STARLINK-32008","OBJECT_ID":"2024-111N","EPOCH":"2025-08-13T14:07:13.150560","MEAN_MOTION":15.30198343,"ECCENTRICITY":0.0001175,"INCLINATION":53.1602,"RA_OF_ASC_NODE":322.1336,"ARG_OF_PERICENTER":101.3474,"MEAN_ANOMALY":258.7659,"EPHEMERIS_TYPE":0,"CLASSIFICATION_TYPE":"U","NORAD_CAT_ID":60028,"ELEMENT_SET_NO":999,"REV_AT_EPOCH":6717,"BSTAR":-6.5243e-5,"MEAN_MOTION_DOT":-2.291e-5,"MEAN_MOTION_DDOT":0},{"OBJECT_NAME":"STARLINK-32006","OBJECT_ID":"2024-111P","EPOCH":"2025-08-13T12:46:50.979936","MEAN_MOTION":15.30191291,"ECCENTRICITY":0.0001361,"INCLINATION":53.1623,"RA_OF_ASC_NODE":322.5007,"ARG_OF_PERICENTER":104.0426,"MEAN_ANOMALY":256.0726,"EPHEMERIS_TYPE":0,"CLASSIFICATION_TYPE":"U","NORAD_CAT_ID":60029,"ELEMENT_SET_NO":999,"REV_AT_EPOCH":6716,"BSTAR":-7.3147e-5,"MEAN_MOTION_DOT":-2.524e-5,"MEAN_MOTION_DDOT":0},{"OBJECT_NAME":"STARLINK-32011","OBJECT_ID":"2024-111Q","EPOCH":"2025-08-13T13:36:50.220288","MEAN_MOTION":15.30192064,"ECCENTRICITY":0.0001209,"INCLINATION":53.1603,"RA_OF_ASC_NODE":322.0109,"ARG_OF_PERICENTER":118.5028,"MEAN_ANOMALY":241.6094,"EPHEMERIS_TYPE":0,"CLASSIFICATION_TYPE":"U","NORAD_CAT_ID":60030,"ELEMENT_SET_NO":999,"REV_AT_EPOCH":6717,"BSTAR":-1.0251e-5,"MEAN_MOTION_DOT":-6.63e-6,"MEAN_MOTION_DDOT":0},{"OBJECT_NAME":"STARLINK-31878","OBJECT_ID":"2024-111R","EPOCH":"2025-08-13T11:36:46.426752","MEAN_MOTION":15.30190716,"ECCENTRICITY":0.0001235,"INCLINATION":53.159,"RA_OF_ASC_NODE":270.9521,"ARG_OF_PERICENTER":70.8779,"MEAN_ANOMALY":289.2356,"EPHEMERIS_TYPE":0,"CLASSIFICATION_TYPE":"U","NORAD_CAT_ID":60031,"ELEMENT_SET_NO":999,"REV_AT_EPOCH":6763,"BSTAR":2.4145e-7,"MEAN_MOTION_DOT":-3.52e-6,"MEAN_MOTION_DDOT":0}]
